[{"OBJECT_NAME":"KUIPER-00222","OBJECT_ID":"2026-030U","EPOCH":"2026-03-04T14:08:51.694080","MEAN_MOTION":15.32301786,"ECCENTRICITY":0.00173059,"INCLINATION":51.8792,"RA_OF_ASC_NODE":244.1224,"ARG_OF_PERICENTER":45.4647,"MEAN_ANOMALY":314.7748,"EPHEMERIS_TYPE":0,"CLASSIFICATION_TYPE":"U","NORAD_CAT_ID":67782,"ELEMENT_SET_NO":999,"REV_AT_EPOCH":430,"BSTAR":0.00226839,"MEAN_MOTION_DOT":0.0007244,"MEAN_MOTION_DDOT":0},{"OBJECT_NAME":"KUIPER-00223","OBJECT_ID":"2026-030V","EPOCH":"2026-03-04T13:47:45.802752","MEAN_MOTION":15.34021842,"ECCENTRICITY":0.00122694,"INCLINATION":51.8818,"RA_OF_ASC_NODE":244.0349,"ARG_OF_PERICENTER":45.6092,"MEAN_ANOMALY":314.5897,"EPHEMERIS_TYPE":0,"CLASSIFICATION_TYPE":"U","NORAD_CAT_ID":67783,"ELEMENT_SET_NO":999,"REV_AT_EPOCH":430,"BSTAR":0.0011252568,"MEAN_MOTION_DOT":0.00037493,"MEAN_MOTION_DDOT":0},{"OBJECT_NAME":"KUIPER-00225","OBJECT_ID":"2026-030W","EPOCH":"2026-03-04T13:17:38.178240","MEAN_MOTION":15.35668916,"ECCENTRICITY":0.00040179,"INCLINATION":51.881,"RA_OF_ASC_NODE":243.8968,"ARG_OF_PERICENTER":25.6613,"MEAN_ANOMALY":334.4572,"EPHEMERIS_TYPE":0,"CLASSIFICATION_TYPE":"U","NORAD_CAT_ID":67784,"ELEMENT_SET_NO":999,"REV_AT_EPOCH":430,"BSTAR":0.0011072039,"MEAN_MOTION_DOT":0.00038816,"MEAN_MOTION_DDOT":0},{"OBJECT_NAME":"KUIPER-00226","OBJECT_ID":"2026-030X","EPOCH":"2026-03-04T14:24:08.773056","MEAN_MOTION":15.31353787,"ECCENTRICITY":0.00197903,"INCLINATION":51.8806,"RA_OF_ASC_NODE":244.1923,"ARG_OF_PERICENTER":58.8877,"MEAN_ANOMALY":301.4045,"EPHEMERIS_TYPE":0,"CLASSIFICATION_TYPE":"U","NORAD_CAT_ID":67785,"ELEMENT_SET_NO":999,"REV_AT_EPOCH":430,"BSTAR":0.000869474,"MEAN_MOTION_DOT":0.00026595,"MEAN_MOTION_DDOT":0},{"OBJECT_NAME":"KUIPER-00259","OBJECT_ID":"2026-030Y","EPOCH":"2026-03-04T13:32:48.195744","MEAN_MOTION":15.34847544,"ECCENTRICITY":0.00083213,"INCLINATION":51.8805,"RA_OF_ASC_NODE":243.9641,"ARG_OF_PERICENTER":33.9069,"MEAN_ANOMALY":326.2447,"EPHEMERIS_TYPE":0,"CLASSIFICATION_TYPE":"U","NORAD_CAT_ID":67786,"ELEMENT_SET_NO":999,"REV_AT_EPOCH":430,"BSTAR":0.0011951351,"MEAN_MOTION_DOT":0.0004088,"MEAN_MOTION_DDOT":0},{"OBJECT_NAME":"KUIPER-00260","OBJECT_ID":"2026-030Z","EPOCH":"2026-03-04T14:40:43.618944","MEAN_MOTION":15.36226156,"ECCENTRICITY":9.766e-5,"INCLINATION":51.8796,"RA_OF_ASC_NODE":243.5338,"ARG_OF_PERICENTER":57.1553,"MEAN_ANOMALY":302.9527,"EPHEMERIS_TYPE":0,"CLASSIFICATION_TYPE":"U","NORAD_CAT_ID":67787,"ELEMENT_SET_NO":999,"REV_AT_EPOCH":422,"BSTAR":0.00085341319,"MEAN_MOTION_DOT":0.00030335,"MEAN_MOTION_DDOT":0},{"OBJECT_NAME":"KUIPER-00262","OBJECT_ID":"2026-030AA","EPOCH":"2026-03-04T14:35:53.585376","MEAN_MOTION":15.36546425,"ECCENTRICITY":4.001e-5,"INCLINATION":51.8809,"RA_OF_ASC_NODE":243.5152,"ARG_OF_PERICENTER":128.3113,"MEAN_ANOMALY":231.791,"EPHEMERIS_TYPE":0,"CLASSIFICATION_TYPE":"U","NORAD_CAT_ID":67788,"ELEMENT_SET_NO":999,"REV_AT_EPOCH":431,"BSTAR":0.0010443443,"MEAN_MOTION_DOT":0.00037632,"MEAN_MOTION_DDOT":0},{"OBJECT_NAME":"KUIPER-00266","OBJECT_ID":"2026-030AB","EPOCH":"2026-03-04T14:30:31.873248","MEAN_MOTION":15.3093105,"ECCENTRICITY":0.00228636,"INCLINATION":51.8802,"RA_OF_ASC_NODE":244.2163,"ARG_OF_PERICENTER":58.382,"MEAN_ANOMALY":301.9391,"EPHEMERIS_TYPE":0,"CLASSIFICATION_TYPE":"U","NORAD_CAT_ID":67789,"ELEMENT_SET_NO":999,"REV_AT_EPOCH":430,"BSTAR":0.00044013392,"MEAN_MOTION_DOT":0.000131,"MEAN_MOTION_DDOT":0},{"OBJECT_NAME":"KUIPER-00268","OBJECT_ID":"2026-030AC","EPOCH":"2026-03-04T14:47:47.861952","MEAN_MOTION":15.35773387,"ECCENTRICITY":0.00024134,"INCLINATION":51.8843,"RA_OF_ASC_NODE":243.574,"ARG_OF_PERICENTER":34.0944,"MEAN_ANOMALY":326.0197,"EPHEMERIS_TYPE":0,"CLASSIFICATION_TYPE":"U","NORAD_CAT_ID":67790,"ELEMENT_SET_NO":999,"REV_AT_EPOCH":431,"BSTAR":0.0010657677,"MEAN_MOTION_DOT":0.00037464,"MEAN_MOTION_DDOT":0},{"OBJECT_NAME":"KUIPER-00270","OBJECT_ID":"2026-030AD","EPOCH":"2026-03-04T13:40:15.318336","MEAN_MOTION":15.34425004,"ECCENTRICITY":0.00100983,"INCLINATION":51.8802,"RA_OF_ASC_NODE":243.9964,"ARG_OF_PERICENTER":41.6368,"MEAN_ANOMALY":318.5384,"EPHEMERIS_TYPE":0,"CLASSIFICATION_TYPE":"U","NORAD_CAT_ID":67791,"ELEMENT_SET_NO":999,"REV_AT_EPOCH":430,"BSTAR":0.0011640585,"MEAN_MOTION_DOT":0.00039282,"MEAN_MOTION_DDOT":0},{"OBJECT_NAME":"KUIPER-00274","OBJECT_ID":"2026-030AE","EPOCH":"2026-03-04T14:15:24.130656","MEAN_MOTION":15.3147682,"ECCENTRICITY":0.00174691,"INCLINATION":51.8813,"RA_OF_ASC_NODE":244.1587,"ARG_OF_PERICENTER":54.9553,"MEAN_ANOMALY":305.3068,"EPHEMERIS_TYPE":0,"CLASSIFICATION_TYPE":"U","NORAD_CAT_ID":67792,"ELEMENT_SET_NO":999,"REV_AT_EPOCH":430,"BSTAR":0.0014287895,"MEAN_MOTION_DOT":0.0004416,"MEAN_MOTION_DDOT":0},{"OBJECT_NAME":"KUIPER-00275","OBJECT_ID":"2026-030AF","EPOCH":"2026-03-04T13:36:32.901408","MEAN_MOTION":15.34500074,"ECCENTRICITY":0.00090311,"INCLINATION":51.8839,"RA_OF_ASC_NODE":243.9893,"ARG_OF_PERICENTER":37.7642,"MEAN_ANOMALY":322.3976,"EPHEMERIS_TYPE":0,"CLASSIFICATION_TYPE":"U","NORAD_CAT_ID":67793,"ELEMENT_SET_NO":999,"REV_AT_EPOCH":430,"BSTAR":0.0012079789,"MEAN_MOTION_DOT":0.00040873,"MEAN_MOTION_DDOT":0},{"OBJECT_NAME":"KUIPER-00276","OBJECT_ID":"2026-030AG","EPOCH":"2026-03-04T14:21:08.754336","MEAN_MOTION":15.3140619,"ECCENTRICITY":0.0018726,"INCLINATION":51.8811,"RA_OF_ASC_NODE":244.1823,"ARG_OF_PERICENTER":52.7153,"MEAN_ANOMALY":307.5535,"EPHEMERIS_TYPE":0,"CLASSIFICATION_TYPE":"U","NORAD_CAT_ID":67794,"ELEMENT_SET_NO":999,"REV_AT_EPOCH":430,"BSTAR":0.00098290921,"MEAN_MOTION_DOT":0.00030159,"MEAN_MOTION_DDOT":0},{"OBJECT_NAME":"KUIPER-00279","OBJECT_ID":"2026-030AH","EPOCH":"2026-03-04T13:27:19.808352","MEAN_MOTION":15.35180664,"ECCENTRICITY":0.00063507,"INCLINATION":51.8799,"RA_OF_ASC_NODE":243.9369,"ARG_OF_PERICENTER":33.6689,"MEAN_ANOMALY":326.4699,"EPHEMERIS_TYPE":0,"CLASSIFICATION_TYPE":"U","NORAD_CAT_ID":67795,"ELEMENT_SET_NO":999,"REV_AT_EPOCH":430,"BSTAR":0.0012846684,"MEAN_MOTION_DOT":0.00044445,"MEAN_MOTION_DDOT":0}]
