KUIPER-00222            
1 67782U 26030U   26063.58948720  .00072440  00000+0  22684-2 0  9991
2 67782  51.8792 244.1224 0017305  45.4647 314.7748 15.32301786  4306
KUIPER-00223            
1 67783U 26030V   26063.57483568  .00037493  00000+0  11253-2 0  9994
2 67783  51.8818 244.0349 0012269  45.6092 314.5897 15.34021842  4300
KUIPER-00225            
1 67784U 26030W   26063.55391410  .00038816  00000+0  11072-2 0  9996
2 67784  51.8810 243.8968 0004017  25.6613 334.4572 15.35668916  4307
KUIPER-00226            
1 67785U 26030X   26063.60010154  .00026595  00000+0  86947-3 0  9991
2 67785  51.8806 244.1923 0019790  58.8877 301.4045 15.31353787  4304
KUIPER-00259            
1 67786U 26030Y   26063.56444671  .00040880  00000+0  11951-2 0  9997
2 67786  51.8805 243.9641 0008321  33.9069 326.2447 15.34847544  4306
KUIPER-00260            
1 67787U 26030Z   26063.61161596  .00030335  00000+0  85341-3 0  9995
2 67787  51.8796 243.5338 0000976  57.1553 302.9527 15.36226156  4222
KUIPER-00262            
1 67788U 26030AA  26063.60825909  .00037632  00000+0  10443-2 0  9997
2 67788  51.8809 243.5152 0000400 128.3113 231.7910 15.36546425  4316
KUIPER-00266            
1 67789U 26030AB  26063.60453557  .00013100  00000+0  44013-3 0  9999
2 67789  51.8802 244.2163 0022863  58.3820 301.9391 15.30931050  4302
KUIPER-00268            
1 67790U 26030AC  26063.61652618  .00037464  00000+0  10658-2 0  9997
2 67790  51.8843 243.5740 0002413  34.0944 326.0197 15.35773387  4314
KUIPER-00270            
1 67791U 26030AD  26063.56962174  .00039282  00000+0  11641-2 0  9996
2 67791  51.8802 243.9964 0010098  41.6368 318.5384 15.34425004  4306
KUIPER-00274            
1 67792U 26030AE  26063.59402929  .00044160  00000+0  14288-2 0  9998
2 67792  51.8813 244.1587 0017469  54.9553 305.3068 15.31476820  4307
KUIPER-00275            
1 67793U 26030AF  26063.56704747  .00040873  00000+0  12080-2 0  9994
2 67793  51.8839 243.9893 0009031  37.7642 322.3976 15.34500074  4306
KUIPER-00276            
1 67794U 26030AG  26063.59801799  .00030159  00000+0  98291-3 0  9998
2 67794  51.8811 244.1823 0018726  52.7153 307.5535 15.31406190  4305
KUIPER-00279            
1 67795U 26030AH  26063.56064593  .00044445  00000+0  12847-2 0  9994
2 67795  51.8799 243.9369 0006350  33.6689 326.4699 15.35180664  4305
